[
    {
        "Altitude(m)": 565044.4441981087,
        "Argument of Periapsis(deg)": 0.026491964442854003,
        "Eccentricity": 0.0,
        "Inclination(deg)": 53.0,
        "Latitude(deg)": -36.388622303313696,
        "Longitude(deg)": 145.34102081735466,
        "Mean Anomaly(deg)": 227.63917147031034,
        "RAAN(deg)": 34.96057347411207,
        "Satellite Name": "Starlink Shell 1 165",
        "Satellite Number": 165,
        "Semi-Major Axis(m)": 6931778.249405717,
        "Time(s)": 760
    },
    {
        "Altitude(m)": 565214.450525425,
        "Argument of Periapsis(deg)": 0.02684054292236524,
        "Eccentricity": 0.0,
        "Inclination(deg)": 53.0,
        "Latitude(deg)": -36.8048763638902,
        "Longitude(deg)": 145.88125651393173,
        "Mean Anomaly(deg)": 228.26600267386704,
        "RAAN(deg)": 34.9600547040346,
        "Satellite Name": "Starlink Shell 1 165",
        "Satellite Number": 165,
        "Semi-Major Axis(m)": 6931778.249405717,
        "Time(s)": 770
    },
    {
        "Altitude(m)": 565383.5855233105,
        "Argument of Periapsis(deg)": 0.027189121401876473,
        "Eccentricity": 0.0,
        "Inclination(deg)": 53.0,
        "Latitude(deg)": -37.21821671837621,
        "Longitude(deg)": 146.42777788137508,
        "Mean Anomaly(deg)": 228.89283387742384,
        "RAAN(deg)": 34.95953593395713,
        "Satellite Name": "Starlink Shell 1 165",
        "Satellite Number": 165,
        "Semi-Major Axis(m)": 6931778.249405717,
        "Time(s)": 780
    },
    {
        "Altitude(m)": 565551.7839248461,
        "Argument of Periapsis(deg)": 0.02753769988138771,
        "Eccentricity": 0.0,
        "Inclination(deg)": 53.0,
        "Latitude(deg)": -37.6285691307613,
        "Longitude(deg)": 146.9807042688574,
        "Mean Anomaly(deg)": 229.51966508098047,
        "RAAN(deg)": 34.95901716387964,
        "Satellite Name": "Starlink Shell 1 165",
        "Satellite Number": 165,
        "Semi-Major Axis(m)": 6931778.249405717,
        "Time(s)": 790
    },
    {
        "Altitude(m)": 565718.9807352218,
        "Argument of Periapsis(deg)": 0.02788627836089895,
        "Eccentricity": 0.0,
        "Inclination(deg)": 53.0,
        "Latitude(deg)": -38.03585769665564,
        "Longitude(deg)": 147.54015468802245,
        "Mean Anomaly(deg)": 230.14649628453725,
        "RAAN(deg)": 34.958498393802174,
        "Satellite Name": "Starlink Shell 1 165",
        "Satellite Number": 165,
        "Semi-Major Axis(m)": 6931778.249405717,
        "Time(s)": 800
    },
    {
        "Altitude(m)": 565885.1112606823,
        "Argument of Periapsis(deg)": 0.02823485684041019,
        "Eccentricity": 0.0,
        "Inclination(deg)": 53.0,
        "Latitude(deg)": -38.44000481733355,
        "Longitude(deg)": 148.10624817171325,
        "Mean Anomaly(deg)": 230.77332748809394,
        "RAAN(deg)": 34.957979623724704,
        "Satellite Name": "Starlink Shell 1 165",
        "Satellite Number": 165,
        "Semi-Major Axis(m)": 6931778.249405717,
        "Time(s)": 810
    },
    {
        "Altitude(m)": 566050.1111372872,
        "Argument of Periapsis(deg)": 0.028583435319921423,
        "Eccentricity": 0.0,
        "Inclination(deg)": 53.0,
        "Latitude(deg)": -38.84093117527525,
        "Longitude(deg)": 148.67910412030724,
        "Mean Anomaly(deg)": 231.40015869165063,
        "RAAN(deg)": 34.95746085364723,
        "Satellite Name": "Starlink Shell 1 165",
        "Satellite Number": 165,
        "Semi-Major Axis(m)": 6931778.249405717,
        "Time(s)": 820
    },
    {
        "Altitude(m)": 566213.9163595607,
        "Argument of Periapsis(deg)": 0.028932013799432665,
        "Eccentricity": 0.0,
        "Inclination(deg)": 53.0,
        "Latitude(deg)": -39.238555711408175,
        "Longitude(deg)": 149.2588411221852,
        "Mean Anomaly(deg)": 232.02698989520735,
        "RAAN(deg)": 34.95694208356976,
        "Satellite Name": "Starlink Shell 1 165",
        "Satellite Number": 165,
        "Semi-Major Axis(m)": 6931778.249405717,
        "Time(s)": 830
    },
    {
        "Altitude(m)": 566376.4633088906,
        "Argument of Periapsis(deg)": 0.029280592278943897,
        "Eccentricity": 0.0,
        "Inclination(deg)": 53.0,
        "Latitude(deg)": -39.632795604274236,
        "Longitude(deg)": 149.84557727347826,
        "Mean Anomaly(deg)": 232.65382109876407,
        "RAAN(deg)": 34.95642331349229,
        "Satellite Name": "Starlink Shell 1 165",
        "Satellite Number": 165,
        "Semi-Major Axis(m)": 6931778.249405717,
        "Time(s)": 840
    },
    {
        "Altitude(m)": 566537.6887818169,
        "Argument of Periapsis(deg)": 0.029629170758455132,
        "Eccentricity": 0.0,
        "Inclination(deg)": 53.0,
        "Latitude(deg)": -40.023566251357124,
        "Longitude(deg)": 150.43943048363064,
        "Mean Anomaly(deg)": 233.28065230232082,
        "RAAN(deg)": 34.95590454341481,
        "Satellite Name": "Starlink Shell 1 165",
        "Satellite Number": 165,
        "Semi-Major Axis(m)": 6931778.249405717,
        "Time(s)": 850
    },
    {
        "Altitude(m)": 566697.5300180528,
        "Argument of Periapsis(deg)": 0.02997774923796637,
        "Eccentricity": 0.0,
        "Inclination(deg)": 53.0,
        "Latitude(deg)": -40.410781252815816,
        "Longitude(deg)": 151.0405170852243,
        "Mean Anomaly(deg)": 233.9074835058775,
        "RAAN(deg)": 34.95538577333734,
        "Satellite Name": "Starlink Shell 1 165",
        "Satellite Number": 165,
        "Semi-Major Axis(m)": 6931778.249405717,
        "Time(s)": 860
    },
    {
        "Altitude(m)": 566855.9247283442,
        "Argument of Periapsis(deg)": 0.030326327717477602,
        "Eccentricity": 0.0,
        "Inclination(deg)": 53.0,
        "Latitude(deg)": -40.79435239789866,
        "Longitude(deg)": 151.64895294992542,
        "Mean Anomaly(deg)": 234.53431470943417,
        "RAAN(deg)": 34.95486700325986,
        "Satellite Name": "Starlink Shell 1 165",
        "Satellite Number": 165,
        "Semi-Major Axis(m)": 6931778.249405717,
        "Time(s)": 870
    },
    {
        "Altitude(m)": 567012.8111220616,
        "Argument of Periapsis(deg)": 0.030674906196988847,
        "Eccentricity": 0.0,
        "Inclination(deg)": 53.0,
        "Latitude(deg)": -41.17418965431096,
        "Longitude(deg)": 152.26485206710308,
        "Mean Anomaly(deg)": 235.16114591299095,
        "RAAN(deg)": 34.954348233182394,
        "Satellite Name": "Starlink Shell 1 165",
        "Satellite Number": 165,
        "Semi-Major Axis(m)": 6931778.249405717,
        "Time(s)": 880
    },
    {
        "Altitude(m)": 567168.1279345719,
        "Argument of Periapsis(deg)": 0.031023484676500086,
        "Eccentricity": 0.0,
        "Inclination(deg)": 53.0,
        "Latitude(deg)": -41.55020116084095,
        "Longitude(deg)": 152.88832678703457,
        "Mean Anomaly(deg)": 235.78797711654764,
        "RAAN(deg)": 34.953829463104924,
        "Satellite Name": "Starlink Shell 1 165",
        "Satellite Number": 165,
        "Semi-Major Axis(m)": 6931778.249405717,
        "Time(s)": 890
    },
    {
        "Altitude(m)": 567321.8144543776,
        "Argument of Periapsis(deg)": 0.03137206315601132,
        "Eccentricity": 0.0,
        "Inclination(deg)": 53.0,
        "Latitude(deg)": -41.922293223553666,
        "Longitude(deg)": 153.5194880472569,
        "Mean Anomaly(deg)": 236.41480832010433,
        "RAAN(deg)": 34.95331069302744,
        "Satellite Name": "Starlink Shell 1 165",
        "Satellite Number": 165,
        "Semi-Major Axis(m)": 6931778.249405717,
        "Time(s)": 900
    },
    {
        "Altitude(m)": 567473.8105499464,
        "Argument of Periapsis(deg)": 0.03172064163552255,
        "Eccentricity": 0.0,
        "Inclination(deg)": 53.0,
        "Latitude(deg)": -42.29037031587847,
        "Longitude(deg)": 154.1584440687695,
        "Mean Anomaly(deg)": 237.0416395236611,
        "RAAN(deg)": 34.95279192294997,
        "Satellite Name": "Starlink Shell 1 165",
        "Satellite Number": 165,
        "Semi-Major Axis(m)": 6931778.249405717,
        "Time(s)": 910
    },
    {
        "Altitude(m)": 567624.0566963187,
        "Argument of Periapsis(deg)": 0.0320692201150338,
        "Eccentricity": 0.0,
        "Inclination(deg)": 53.0,
        "Latitude(deg)": -42.65433508293903,
        "Longitude(deg)": 154.80530054747155,
        "Mean Anomaly(deg)": 237.6684707272178,
        "RAAN(deg)": 34.9522731528725,
        "Satellite Name": "Starlink Shell 1 165",
        "Satellite Number": 165,
        "Semi-Major Axis(m)": 6931778.249405717,
        "Time(s)": 920
    },
    {
        "Altitude(m)": 567772.4940014012,
        "Argument of Periapsis(deg)": 0.032417798594545036,
        "Eccentricity": 0.0,
        "Inclination(deg)": 53.0,
        "Latitude(deg)": -43.01408835047976,
        "Longitude(deg)": 155.46016082766593,
        "Mean Anomaly(deg)": 238.29530193077446,
        "RAAN(deg)": 34.95175438279502,
        "Satellite Name": "Starlink Shell 1 165",
        "Satellite Number": 165,
        "Semi-Major Axis(m)": 6931778.249405717,
        "Time(s)": 930
    },
    {
        "Altitude(m)": 567919.0642319636,
        "Argument of Periapsis(deg)": 0.03276637707405627,
        "Eccentricity": 0.0,
        "Inclination(deg)": 53.0,
        "Latitude(deg)": -43.36952913875703,
        "Longitude(deg)": 156.12312454454403,
        "Mean Anomaly(deg)": 238.92213313433123,
        "RAAN(deg)": 34.951235612717554,
        "Satellite Name": "Starlink Shell 1 165",
        "Satellite Number": 165,
        "Semi-Major Axis(m)": 6931778.249405717,
        "Time(s)": 940
    }
]